[
    {
        "OBJECT_NAME": "QZS-2 (MICHIBIKI-2)",
        "OBJECT_ID": "2017-028A",
        "EPOCH": "2026-07-09T11:02:38.826240",
        "MEAN_MOTION": 1.00278207,
        "ECCENTRICITY": 0.07580661,
        "INCLINATION": 39.3944,
        "RA_OF_ASC_NODE": 242.8253,
        "ARG_OF_PERICENTER": 269.5337,
        "MEAN_ANOMALY": 83.0316,
        "EPHEMERIS_TYPE": 0,
        "CLASSIFICATION_TYPE": "U",
        "NORAD_CAT_ID": 42738,
        "ELEMENT_SET_NO": 999,
        "REV_AT_EPOCH": 785,
        "BSTAR": 0,
        "MEAN_MOTION_DOT": -9.2e-07,
        "MEAN_MOTION_DDOT": 0
    },
    {
        "OBJECT_NAME": "QZS-3 (MICHIBIKI-3)",
        "OBJECT_ID": "2017-048A",
        "EPOCH": "2026-07-10T07:21:58.319136",
        "MEAN_MOTION": 1.00274625,
        "ECCENTRICITY": 0.00025269,
        "INCLINATION": 0.0737,
        "RA_OF_ASC_NODE": 218.9036,
        "ARG_OF_PERICENTER": 264.9421,
        "MEAN_ANOMALY": 41.8841,
        "EPHEMERIS_TYPE": 0,
        "CLASSIFICATION_TYPE": "U",
        "NORAD_CAT_ID": 42917,
        "ELEMENT_SET_NO": 999,
        "REV_AT_EPOCH": 3249,
        "BSTAR": 0,
        "MEAN_MOTION_DOT": -3.37e-06,
        "MEAN_MOTION_DDOT": 0
    },
    {
        "OBJECT_NAME": "QZS-4 (MICHIBIKI-4)",
        "OBJECT_ID": "2017-062A",
        "EPOCH": "2026-07-09T17:46:38.218368",
        "MEAN_MOTION": 1.00291716,
        "ECCENTRICITY": 0.07474153,
        "INCLINATION": 40.0954,
        "RA_OF_ASC_NODE": 343.1995,
        "ARG_OF_PERICENTER": 268.4439,
        "MEAN_ANOMALY": 81.4735,
        "EPHEMERIS_TYPE": 0,
        "CLASSIFICATION_TYPE": "U",
        "NORAD_CAT_ID": 42965,
        "ELEMENT_SET_NO": 999,
        "REV_AT_EPOCH": 3202,
        "BSTAR": 0,
        "MEAN_MOTION_DOT": -3.15e-06,
        "MEAN_MOTION_DDOT": 0
    },
    {
        "OBJECT_NAME": "QZS-1R (MICHIBIKI-1R)",
        "OBJECT_ID": "2021-096A",
        "EPOCH": "2026-07-09T14:14:06.654912",
        "MEAN_MOTION": 1.00247254,
        "ECCENTRICITY": 0.07549588,
        "INCLINATION": 37.5047,
        "RA_OF_ASC_NODE": 79.2525,
        "ARG_OF_PERICENTER": 272.1428,
        "MEAN_ANOMALY": 281.8869,
        "EPHEMERIS_TYPE": 0,
        "CLASSIFICATION_TYPE": "U",
        "NORAD_CAT_ID": 49336,
        "ELEMENT_SET_NO": 999,
        "REV_AT_EPOCH": 1723,
        "BSTAR": 0,
        "MEAN_MOTION_DOT": -2.79e-06,
        "MEAN_MOTION_DDOT": 0
    },
    {
        "OBJECT_NAME": "QZS-6 (MICHIBIKI-6)",
        "OBJECT_ID": "2025-023A",
        "EPOCH": "2026-07-10T07:11:21.836256",
        "MEAN_MOTION": 1.00268414,
        "ECCENTRICITY": 0.0001819,
        "INCLINATION": 0.023,
        "RA_OF_ASC_NODE": 313.9351,
        "ARG_OF_PERICENTER": 176.0231,
        "MEAN_ANOMALY": 356.5979,
        "EPHEMERIS_TYPE": 0,
        "CLASSIFICATION_TYPE": "U",
        "NORAD_CAT_ID": 62876,
        "ELEMENT_SET_NO": 999,
        "REV_AT_EPOCH": 518,
        "BSTAR": 0,
        "MEAN_MOTION_DOT": -2.22e-06,
        "MEAN_MOTION_DDOT": 0
    }
]
